*******************************************************************************
Ephemeris / WWW_USER Mon Jul 15 19:06:55 2024 Pasadena, USA      / Horizons    
*******************************************************************************
Target body name: (2017 SN16)                     {source: JPL#20}
Center body name: Earth (399)                     {source: DE441}
Center-site name: Gemini South Obs., Cerro Pachon
*******************************************************************************
Start time      : A.D. 2019-Jan-16 23:57:00.0000 UT      
Stop  time      : A.D. 2019-Jan-17 09:48:00.0000 UT      
Step-size       : 1 minutes
*******************************************************************************
Target pole/equ : undefined
Target radii    : undefined                                                    
Center geodetic : 289.2634, -30.2406227, 2.71233  {E-lon(deg),Lat(deg),Alt(km)}
Center cylindric: 289.2634,5517.21435,-3194.81213 {E-lon(deg),Dxy(km),Dz(km)}
Center pole/equ : ITRF93                          {East-longitude positive}
Center radii    : 6378.137, 6378.137, 6356.752 km {Equator_a, b, pole_c}       
Target primary  : Sun
Vis. interferer : MOON (R_eq= 1737.400) km        {source: DE441}
Rel. light bend : Sun                             {source: DE441}
Rel. lght bnd GM: 1.3271E+11 km^3/s^2                                          
Small-body perts: Yes                             {source: SB441-N16}
Atmos refraction: NO (AIRLESS)
RA format       : HMS
Time format     : CAL 
Calendar mode   : Mixed Julian/Gregorian
RTS-only print  : NO       
EOP file        : eop.240715.p241008                                           
EOP coverage    : DATA-BASED 1962-JAN-20 TO 2024-JUL-15. PREDICTS-> 2024-OCT-07
Units conversion: 1 au= 149597870.700 km, c= 299792.458 km/s, 1 day= 86400.0 s 
Table cut-offs 1: Elevation (-90.0deg=NO ),Airmass (>38.000=NO), Daylight (YES)
Table cut-offs 2: Solar elongation (  0.0,180.0=NO ),Local Hour Angle( 0.0=NO )
Table cut-offs 3: RA/DEC angular rate (     0.0=NO )                           
*******************************************************************************
Initial IAU76/J2000 heliocentric ecliptic osculating elements (au, days, deg.):
  EPOCH=  2458305.5 ! 2018-Jul-06.00 (TDB)         Residual RMS= .23751        
   EC= .1454884975659386   QR= .8682464985612274   TP= 2458145.5722438502      
   OM= 2.759719470837934   W=  137.1017088998531   IN= 13.38264682844635       
  Equivalent ICRF heliocentric cartesian coordinates (au, au/d):
   X= 5.756755401261899E-01  Y=-7.953424559592890E-01  Z=-6.031561894536019E-01
  VX= 1.332076113263395E-02 VY= 5.454663564585547E-03 VZ= 3.896229736425836E-03
Asteroid physical parameters (km, seconds, rotational period in hours):        
   GM= n.a.                RAD= n.a.               ROTPER= n.a.                
   H= 23.34                G= .150                 B-V= n.a.                   
                           ALBEDO= n.a.            STYP= n.a.                  
*******************************************************************************
 Date__(UT)__HR:MN     R.A._________(ICRF)_________DEC
******************************************************
$$SOE
 2019-Jan-17 02:00  m  19 20 55.451793 +34 50 19.11630
 2019-Jan-17 02:01  m  19 20 55.378925 +34 50 17.91294
 2019-Jan-17 02:02  m  19 20 55.306088 +34 50 16.70983
 2019-Jan-17 02:03  m  19 20 55.233280 +34 50 15.50697
 2019-Jan-17 02:04  m  19 20 55.160503 +34 50 14.30435
 2019-Jan-17 02:05  m  19 20 55.087755 +34 50 13.10198
 2019-Jan-17 02:06  m  19 20 55.015037 +34 50 11.89985
 2019-Jan-17 02:07  m  19 20 54.942348 +34 50 10.69798
 2019-Jan-17 02:08  m  19 20 54.869689 +34 50 09.49635
 2019-Jan-17 02:09  m  19 20 54.797058 +34 50 08.29498
 2019-Jan-17 02:10  m  19 20 54.724457 +34 50 07.09385
 2019-Jan-17 02:11  m  19 20 54.651884 +34 50 05.89298
 2019-Jan-17 02:12  m  19 20 54.579339 +34 50 04.69237
 2019-Jan-17 02:13  m  19 20 54.506822 +34 50 03.49200
 2019-Jan-17 02:14  m  19 20 54.434334 +34 50 02.29189
 2019-Jan-17 02:15  m  19 20 54.361873 +34 50 01.09204
 2019-Jan-17 02:16  m  19 20 54.289440 +34 49 59.89244
 2019-Jan-17 02:17  m  19 20 54.217035 +34 49 58.69310
 2019-Jan-17 02:18  m  19 20 54.144657 +34 49 57.49402
 2019-Jan-17 02:19  m  19 20 54.072305 +34 49 56.29520
 2019-Jan-17 02:20  m  19 20 53.999981 +34 49 55.09664
 2019-Jan-17 02:21  m  19 20 53.927683 +34 49 53.89834
 2019-Jan-17 02:22  m  19 20 53.855412 +34 49 52.70030
 2019-Jan-17 02:23  m  19 20 53.783167 +34 49 51.50252
 2019-Jan-17 02:24  m  19 20 53.710948 +34 49 50.30501
 2019-Jan-17 02:25  m  19 20 53.638755 +34 49 49.10776
 2019-Jan-17 02:26  m  19 20 53.566587 +34 49 47.91077
 2019-Jan-17 02:27  m  19 20 53.494445 +34 49 46.71405
 2019-Jan-17 02:28  m  19 20 53.422328 +34 49 45.51760
 2019-Jan-17 02:29  m  19 20 53.350237 +34 49 44.32141
 2019-Jan-17 02:30  m  19 20 53.278170 +34 49 43.12549
 2019-Jan-17 02:31  m  19 20 53.206127 +34 49 41.92984
 2019-Jan-17 02:32  m  19 20 53.134110 +34 49 40.73446
 2019-Jan-17 02:33  m  19 20 53.062116 +34 49 39.53934
 2019-Jan-17 02:34  m  19 20 52.990146 +34 49 38.34450
 2019-Jan-17 02:35  m  19 20 52.918201 +34 49 37.14993
 2019-Jan-17 02:36  m  19 20 52.846279 +34 49 35.95563
 2019-Jan-17 02:37  m  19 20 52.774380 +34 49 34.76161
 2019-Jan-17 02:38  m  19 20 52.702504 +34 49 33.56786
 2019-Jan-17 02:39  m  19 20 52.630652 +34 49 32.37438
 2019-Jan-17 02:40  m  19 20 52.558822 +34 49 31.18118
 2019-Jan-17 02:41  m  19 20 52.487015 +34 49 29.98825
 2019-Jan-17 02:42  m  19 20 52.415230 +34 49 28.79560
 2019-Jan-17 02:43  m  19 20 52.343468 +34 49 27.60322
 2019-Jan-17 02:44  m  19 20 52.271727 +34 49 26.41113
 2019-Jan-17 02:45  m  19 20 52.200008 +34 49 25.21931
 2019-Jan-17 02:46  m  19 20 52.128311 +34 49 24.02777
 2019-Jan-17 02:47  m  19 20 52.056634 +34 49 22.83651
 2019-Jan-17 02:48  m  19 20 51.984980 +34 49 21.64553
 2019-Jan-17 02:49  m  19 20 51.913345 +34 49 20.45483
 2019-Jan-17 02:50  m  19 20 51.841732 +34 49 19.26442
 2019-Jan-17 02:51  m  19 20 51.770139 +34 49 18.07428
 2019-Jan-17 02:52  m  19 20 51.698567 +34 49 16.88443
 2019-Jan-17 02:53  m  19 20 51.627014 +34 49 15.69486
 2019-Jan-17 02:54  m  19 20 51.555481 +34 49 14.50557
 2019-Jan-17 02:55  m  19 20 51.483968 +34 49 13.31657
 2019-Jan-17 02:56  m  19 20 51.412475 +34 49 12.12786
 2019-Jan-17 02:57  m  19 20 51.341000 +34 49 10.93942
 2019-Jan-17 02:58  m  19 20 51.269545 +34 49 09.75128
 2019-Jan-17 02:59  m  19 20 51.198108 +34 49 08.56342
 2019-Jan-17 03:00  m  19 20 51.126690 +34 49 07.37585
 2019-Jan-17 03:01  m  19 20 51.055290 +34 49 06.18857
 2019-Jan-17 03:02  m  19 20 50.983908 +34 49 05.00158
 2019-Jan-17 03:03  m  19 20 50.912545 +34 49 03.81487
 2019-Jan-17 03:04  m  19 20 50.841199 +34 49 02.62846
 2019-Jan-17 03:05  m  19 20 50.769870 +34 49 01.44233
 2019-Jan-17 03:06  m  19 20 50.698559 +34 49 00.25650
 2019-Jan-17 03:07  m  19 20 50.627264 +34 48 59.07095
 2019-Jan-17 03:08  m  19 20 50.555987 +34 48 57.88570
 2019-Jan-17 03:09  m  19 20 50.484726 +34 48 56.70074
 2019-Jan-17 03:10  m  19 20 50.413482 +34 48 55.51607
 2019-Jan-17 03:11  m  19 20 50.342253 +34 48 54.33170
 2019-Jan-17 03:12  m  19 20 50.271041 +34 48 53.14762
 2019-Jan-17 03:13  m  19 20 50.199844 +34 48 51.96383
 2019-Jan-17 03:14  m  19 20 50.128663 +34 48 50.78034
 2019-Jan-17 03:15  m  19 20 50.057497 +34 48 49.59714
 2019-Jan-17 03:16  m  19 20 49.986347 +34 48 48.41424
 2019-Jan-17 03:17  m  19 20 49.915211 +34 48 47.23163
 2019-Jan-17 03:18  m  19 20 49.844089 +34 48 46.04932
 2019-Jan-17 03:19  m  19 20 49.772983 +34 48 44.86730
 2019-Jan-17 03:20  m  19 20 49.701890 +34 48 43.68559
 2019-Jan-17 03:21  m  19 20 49.630811 +34 48 42.50417
 2019-Jan-17 03:22  m  19 20 49.559746 +34 48 41.32305
 2019-Jan-17 03:23  m  19 20 49.488695 +34 48 40.14222
 2019-Jan-17 03:24  m  19 20 49.417657 +34 48 38.96170
 2019-Jan-17 03:25  m  19 20 49.346632 +34 48 37.78147
 2019-Jan-17 03:26  m  19 20 49.275619 +34 48 36.60155
 2019-Jan-17 03:27  m  19 20 49.204620 +34 48 35.42192
 2019-Jan-17 03:28  m  19 20 49.133633 +34 48 34.24260
 2019-Jan-17 03:29  m  19 20 49.062658 +34 48 33.06357
 2019-Jan-17 03:30  m  19 20 48.991695 +34 48 31.88485
 2019-Jan-17 03:31  m  19 20 48.920743 +34 48 30.70643
 2019-Jan-17 03:32  m  19 20 48.849803 +34 48 29.52831
 2019-Jan-17 03:33  m  19 20 48.778875 +34 48 28.35049
 2019-Jan-17 03:34  m  19 20 48.707958 +34 48 27.17297
 2019-Jan-17 03:35  m  19 20 48.637051 +34 48 25.99576
 2019-Jan-17 03:36  m  19 20 48.566155 +34 48 24.81884
 2019-Jan-17 03:37  m  19 20 48.495269 +34 48 23.64224
 2019-Jan-17 03:38  m  19 20 48.424394 +34 48 22.46593
 2019-Jan-17 03:39  m  19 20 48.353528 +34 48 21.28993
 2019-Jan-17 03:40  m  19 20 48.282673 +34 48 20.11424
 2019-Jan-17 03:41  m  19 20 48.211826 +34 48 18.93884
 2019-Jan-17 03:42  m  19 20 48.140989 +34 48 17.76376
 2019-Jan-17 03:43  m  19 20 48.070161 +34 48 16.58898
 2019-Jan-17 03:44  m  19 20 47.999342 +34 48 15.41450
 2019-Jan-17 03:45  m  19 20 47.928532 +34 48 14.24033
 2019-Jan-17 03:46  m  19 20 47.857729 +34 48 13.06646
 2019-Jan-17 03:47  m  19 20 47.786935 +34 48 11.89290
 2019-Jan-17 03:48  m  19 20 47.716149 +34 48 10.71965
 2019-Jan-17 03:49  m  19 20 47.645370 +34 48 09.54670
 2019-Jan-17 03:50  m  19 20 47.574599 +34 48 08.37406
 2019-Jan-17 03:51  m  19 20 47.503835 +34 48 07.20173
 2019-Jan-17 03:52  m  19 20 47.433079 +34 48 06.02970
 2019-Jan-17 03:53  m  19 20 47.362328 +34 48 04.85798
 2019-Jan-17 03:54  m  19 20 47.291585 +34 48 03.68657
 2019-Jan-17 03:55  m  19 20 47.220848 +34 48 02.51546
 2019-Jan-17 03:56  m  19 20 47.150116 +34 48 01.34467
 2019-Jan-17 03:57  m  19 20 47.079391 +34 48 00.17418
 2019-Jan-17 03:58  m  19 20 47.008671 +34 47 59.00400
 2019-Jan-17 03:59  m  19 20 46.937957 +34 47 57.83413
 2019-Jan-17 04:00  m  19 20 46.867248 +34 47 56.66456
 2019-Jan-17 04:01  m  19 20 46.796543 +34 47 55.49531
 2019-Jan-17 04:02  m  19 20 46.725844 +34 47 54.32636
